NORAD_CAT_ID,OBJECT_NAME,OBJECT_TYPE,EPOCH,MEAN_MOTION,ECCENTRICITY,INCLINATION,RA_OF_ASC_NODE,ARG_OF_PERICENTER,MEAN_ANOMALY,BSTAR,MEAN_MOTION_DOT,MEAN_MOTION_DDOT,TLE_LINE0,TLE_LINE1,TLE_LINE2,SEMIMAJOR_AXIS,PERIOD,APOGEE,PERIGEE,DECAYED
52497.0,STARLINK-3884,PAYLOAD,2022-09-13 16:00:00,15.0885003,0.0002097,53.2199,3.942,42.5133,231.0068,-0.0010745999999999,-0.00017355,0.0,0 STARLINK-3884,1 52497U 22049AY  22256.66667824 -.00017355  00000-0 -10746-2 0  9999,2 52497  53.2199   3.9420 0002097  42.5133 231.0068 15.08850030 20374,6917.85,95.437,541.165,538.264,0.0
52497.0,STARLINK-3884,PAYLOAD,2022-09-13 22:00:00,15.08849433,0.0001953,53.2198,2.8191,39.8855,152.3221,-0.0044871,-0.00071017,0.0,0 STARLINK-3884,1 52497U 22049AY  22256.91667824 -.00071017  00000-0 -44871-2 0  9998,2 52497  53.2198   2.8191 0001953  39.8855 152.3221 15.08849433  1309,6917.852,95.437,541.068,538.365,0.0
52497.0,STARLINK-3884,PAYLOAD,2022-09-14 06:00:00,15.08794368,0.0001766999999999,53.22,1.3222,43.9123,159.8715,0.00257,0.000408,0.0,0 STARLINK-3884,1 52497U 22049AY  22257.25001157  .00040800  00000-0  25700-2 0  9991,2 52497  53.2200   1.3222 0001767  43.9123 159.8715 15.08794368 20452,6918.02,95.44,541.107,538.6619999999998,0.0
52497.0,STARLINK-3884,PAYLOAD,2022-09-14 14:00:01,15.08815829,0.0001986,53.2199,359.8278,39.6544,175.6907,0.00060589,9.362e-05,0.0,0 STARLINK-3884,1 52497U 22049AY  22257.58334491  .00009362  00000-0  60589-3 0  9990,2 52497  53.2199 359.8278 0001986  39.6544 175.6907 15.08815829  1301,6917.954000000002,95.439,541.193,538.445,0.0
52497.0,STARLINK-3884,PAYLOAD,2022-09-14 22:00:00,15.08846041,0.0001966,53.2198,358.3309,38.172,188.7381,-0.0012096,-0.00019491,0.0,0 STARLINK-3884,1 52497U 22049AY  22257.91667824 -.00019491  00000-0 -12096-2 0  9991,2 52497  53.2198 358.3309 0001966  38.1720 188.7381 15.08846041 20567,6917.861999999999,95.437,541.087,538.367,0.0
52497.0,STARLINK-3884,PAYLOAD,2022-09-15 14:00:01,15.08847039,0.0002044,53.2199,355.339,37.7613,212.3567,-0.00080544,-0.00013087,0.0,0 STARLINK-3884,1 52497U 22049AY  22258.58334491 -.00013087  00000-0 -80544-3 0  9995,2 52497  53.2199 355.3390 0002044  37.7613 212.3567 15.08847039  1308,6917.859,95.437,541.138,538.31,0.0
52497.0,STARLINK-3884,PAYLOAD,2022-09-15 16:00:00,15.08821015,0.0002070999999999,53.2201,354.9652,37.1344,305.8912,0.002688,0.00042729,0.0,0 STARLINK-3884,1 52497U 22049AY  22258.66667824  .00042729  00000-0  26880-2 0  9998,2 52497  53.2201 354.9652 0002071  37.1344 305.8912 15.08821015  1301,6917.938,95.439,541.236,538.371,0.0
52497.0,STARLINK-3884,PAYLOAD,2022-09-16 12:44:33,15.08828329,0.0001964,53.2216,351.0835,43.2018,316.9128,8.0141e-05,9.87e-06,0.0,0 STARLINK-3884,1 52497U 22049AY  22259.53094638  .00000987  00000-0  80141-4 0  9994,2 52497  53.2216 351.0835 0001964  43.2018 316.9128 15.08828329 20807,6917.916,95.438,541.14,538.422,0.0
52497.0,STARLINK-3884,PAYLOAD,2022-09-16 15:55:20,15.08829522,0.0001992,53.2216,350.48900000000015,42.4354,317.6792,6.6696e-05,7.73e-06,0.0,0 STARLINK-3884,1 52497U 22049AY  22259.66342703  .00000773  00000-0  66696-4 0  9999,2 52497  53.2216 350.4890 0001992  42.4354 317.6792 15.08829522 20661,6917.9119999999975,95.438,541.155,538.399,0.0
52497.0,STARLINK-3884,PAYLOAD,2022-09-17 12:35:21,15.088359,0.0001976,53.2216,346.6241,42.052,318.0624,-4.2128e-05,-9.59e-06,0.0,0 STARLINK-3884,1 52497U 22049AY  22260.52455004 -.00000959  00000-0 -42128-4 0  9997,2 52497  53.2216 346.6241 0001976  42.0520 318.0624 15.08835900 20791,6917.893,95.438,541.125,538.391,0.0
52497.0,STARLINK-3884,PAYLOAD,2022-09-17 15:46:07,15.08838927,0.0002045999999999,53.2216,346.0292,41.7083,318.4065,-6.4467e-05,-1.314e-05,0.0,0 STARLINK-3884,1 52497U 22049AY  22260.65702933 -.00001314  00000-0 -64467-4 0  9993,2 52497  53.2216 346.0292 0002046  41.7083 318.4065 15.08838927 20818,6917.884,95.438,541.164,538.3330000000002,0.0
52497.0,STARLINK-3884,PAYLOAD,2022-09-18 12:26:08,15.08833228,0.0002043,53.2215,342.1646,37.6096,322.5039,-1.1457e-05,-4.71e-06,0.0,0 STARLINK-3884,1 52497U 22049AY  22261.51815087 -.00000471  00000-0 -11457-4 0  9998,2 52497  53.2215 342.1646 0002043  37.6096 322.5039 15.08833228 20942,6917.901,95.438,541.179,538.3530000000002,0.0
52497.0,STARLINK-3884,PAYLOAD,2022-09-19 04:19:59,15.08838319,0.0001966,53.2213,339.1911,38.9191,321.1942,6.708300000000001e-05,7.8e-06,0.0,0 STARLINK-3884,1 52497U 22049AY  22262.18054578  .00000780  00000-0  67083-4 0  9999,2 52497  53.2213 339.1911 0001966  38.9191 321.1942 15.08838319 21208,6917.886,95.438,541.111,538.39,0.0
52497.0,STARLINK-3884,PAYLOAD,2022-09-19 09:06:07,15.08844656,0.0002102,53.2213,338.2989,36.1873,323.9261,0.0001462,2.04e-05,0.0,0 STARLINK-3884,1 52497U 22049AY  22262.37925872  .00002040  00000-0  14620-3 0  9993,2 52497  53.2213 338.2989 0002102  36.1873 323.9261 15.08844656 21231,6917.866,95.437,541.185,538.2769999999998,0.0
52497.0,STARLINK-3884,PAYLOAD,2022-09-19 10:41:31,15.088415,0.00018,53.2211,338.0005,47.2717,312.8427,0.0001103,1.468e-05,0.0,0 STARLINK-3884,1 52497U 22049AY  22262.44550122  .00001468  00000-0  11030-3 0  9998,2 52497  53.2211 338.0005 0001800  47.2717 312.8427 15.08841500 21089,6917.876,95.437,540.986,538.496,0.0
52497.0,STARLINK-3884,PAYLOAD,2022-09-19 15:27:41,15.08823088,0.0001998,53.2223,337.1116,34.6526,325.4596,0.00030205,4.52e-05,0.0,0 STARLINK-3884,1 52497U 22049AY  22262.64422684  .00004520  00000-0  30205-3 0  9998,2 52497  53.2223 337.1116 0001998  34.6526 325.4596 15.08823088 21270,6917.932,95.439,541.179,538.415,0.0
52497.0,STARLINK-3884,PAYLOAD,2022-09-19 21:49:13,15.08841141,0.0002093,53.2213,335.9213,36.9783,323.1354,2.2427e-05,6.9e-07,0.0,0 STARLINK-3884,1 52497U 22049AY  22262.90918509  .00000069  00000-0  22427-4 0  9995,2 52497  53.2213 335.9213 0002093  36.9783 323.1354 15.08841141 21154,6917.877,95.437,541.19,538.294,0.0
52497.0,STARLINK-3884,PAYLOAD,2022-09-21 04:01:33,15.08843378,0.0002534,53.2218,330.2735,24.478,335.6333,-4.1751e-05,-9.53e-06,0.0,0 STARLINK-3884,1 52497U 22049AY  22264.16774535 -.00000953  00000-0 -41751-4 0  9999,2 52497  53.2218 330.2735 0002534  24.4780 335.6333 15.08843378 21503,6917.87,95.437,541.488,537.982,0.0
52497.0,STARLINK-3884,PAYLOAD,2022-09-21 16:44:38,15.08844883,0.0001969,53.221,327.8917,38.2459,321.8673,-6.8903e-05,-1.385e-05,0.0,0 STARLINK-3884,1 52497U 22049AY  22264.69766539 -.00001385  00000-0 -68903-4 0  9990,2 52497  53.2210 327.8917 0001969  38.2459 321.8673 15.08844883 21423,6917.865,95.437,541.0930000000002,538.368,0.0
52497.0,STARLINK-3884,PAYLOAD,2022-09-22 11:49:16,15.0883006,0.0002101,53.2209,324.3235,36.4031,323.7104,-2.4199e-05,-6.73e-06,0.0,0 STARLINK-3884,1 52497U 22049AY  22265.49255302 -.00000673  00000-0 -24199-4 0  9998,2 52497  53.2209 324.3235 0002101  36.4031 323.7104 15.08830060 21704,6917.911,95.438,541.229,538.322,0.0
52497.0,STARLINK-3884,PAYLOAD,2022-09-22 13:24:39,15.08830917,0.0002088,53.2209,324.0263,36.6048,323.5087,-2.0651e-05,-6.17e-06,0.0,0 STARLINK-3884,1 52497U 22049AY  22265.55879282 -.00000617  00000-0 -20651-4 0  9991,2 52497  53.2209 324.0263 0002088  36.6048 323.5087 15.08830917 21558,6917.908,95.438,541.2180000000002,538.3290000000002,0.0
52497.0,STARLINK-3884,PAYLOAD,2022-09-22 19:46:12,15.08833808,0.0002125,53.2208,322.837,36.5499,323.5637,6.6084e-06,-1.83e-06,0.0,0 STARLINK-3884,1 52497U 22049AY  22265.82375121 -.00000183  00000-0  66084-5 0  9992,2 52497  53.2208 322.8370 0002125  36.5499 323.5637 15.08833808 21590,6917.899,95.438,541.234,538.294,0.0
52497.0,STARLINK-3884,PAYLOAD,2022-09-23 02:07:44,15.08841237,0.0002319,53.2207,321.6478,30.4238,329.6888,-2.9485e-05,-7.58e-06,0.0,0 STARLINK-3884,1 52497U 22049AY  22266.08870957 -.00000758  00000-0 -29485-4 0  9990,2 52497  53.2207 321.6478 0002319  30.4238 329.6888 15.08841237 21796,6917.877,95.437,541.346,538.137,0.0
52497.0,STARLINK-3884,PAYLOAD,2022-09-23 11:40:02,15.08843188,0.000207,53.2207,319.8635,42.4498,317.6654,3.602e-05,2.85e-06,0.0,0 STARLINK-3884,1 52497U 22049AY  22266.48614537  .00000285  00000-0  36020-4 0  9990,2 52497  53.2207 319.8635 0002070  42.4498 317.6654 15.08843188 21699,6917.871,95.437,541.168,538.304,0.0
52497.0,STARLINK-3884,PAYLOAD,2022-09-23 14:50:49,15.08842109,0.0002154999999999,53.2207,319.2688,37.8879,322.2265,9.6829e-05,1.253e-05,0.0,0 STARLINK-3884,1 52497U 22049AY  22266.61862419  .00001253  00000-0  96829-4 0  9998,2 52497  53.2207 319.2688 0002155  37.8879 322.2265 15.08842109 21711,6917.874,95.437,541.23,538.248,0.0
52497.0,STARLINK-3884,PAYLOAD,2022-09-24 11:30:49,15.08844227,0.0002226,53.2205,315.4035,36.0984,324.0158,1.1869e-05,-9.9e-07,0.0,0 STARLINK-3884,1 52497U 22049AY  22267.47974452 -.00000099  00000-0  11869-4 0  9993,2 52497  53.2205 315.4035 0002226  36.0984 324.0158 15.08844227 22007,6917.8669999999975,95.437,541.2719999999998,538.193,0.0
52497.0,STARLINK-3884,PAYLOAD,2022-09-24 14:41:36,15.08837788,0.0002158,53.2205,314.8088,36.6261,323.4879,9.3294e-05,1.197e-05,0.0,0 STARLINK-3884,1 52497U 22049AY  22267.61222593  .00001197  00000-0  93294-4 0  9992,2 52497  53.2205 314.8088 0002158  36.6261 323.4879 15.08837788 21866,6917.887,95.438,541.245,538.259,0.0
52497.0,STARLINK-3884,PAYLOAD,2022-09-24 22:38:32,15.08832067,0.0002186,53.2204,313.3221,36.5111,323.6029,1.5782e-06,-2.63e-06,0.0,0 STARLINK-3884,1 52497U 22049AY  22267.94343350 -.00000263  00000-0  15782-5 0  9994,2 52497  53.2204 313.3221 0002186  36.5111 323.6029 15.08832067 22070,6917.905,95.438,541.2819999999998,538.257,0.0
52497.0,STARLINK-3884,PAYLOAD,2022-09-25 09:46:14,15.08835994,0.0002189,53.2203,311.2406,37.8655,322.2491,-1.4877e-05,-5.25e-06,0.0,0 STARLINK-3884,1 52497U 22049AY  22268.40711211 -.00000525  00000-0 -14877-4 0  9996,2 52497  53.2203 311.2406 0002189  37.8655 322.2491 15.08835994 21980,6917.893,95.438,541.2719999999998,538.243,0.0
